start=new Date('2023-02-06T00:00:00.000Z').valueOf();
sats=[{"ARG_OF_PERICENTER":"100.2229","CENTER_NAME":"EARTH","FILE":"3774172","TLE_LINE2":"2 51743  53.2184 332.4864 0001217 100.2229 259.8901 15.08835526 53423","ELEMENT_SET_NO":"999","ECCENTRICITY":"0.00012170","TIME_SYSTEM":"UTC","DECAY_DATE":null,"OBJECT_ID":"2022-016AF","EPHEMERIS_TYPE":"0","REV_AT_EPOCH":"5342","MEAN_ANOMALY":"259.8901","MEAN_MOTION_DDOT":"0.0000000000000","BSTAR":"0.00013462000000","SEMIMAJOR_AXIS":"6917.894","OBJECT_TYPE":"PAYLOAD","REF_FRAME":"TEME","RA_OF_ASC_NODE":"332.4864","COUNTRY_CODE":"US","GP_ID":"224558212","OBJECT_NAME":"STARLINK-3512","INCLINATION":"53.2184","PERIAPSIS":"538.917","MEAN_MOTION":"15.08835526","APOAPSIS":"540.601","EPOCH":"2023-02-05T18:48:01.347552","MEAN_MOTION_DOT":"0.00001855","TLE_LINE1":"1 51743U 22016AF  23036.78334893  .00001855  00000-0  13462-3 0  9998","SITE":"AFETR","LAUNCH_DATE":"2022-02-21","CLASSIFICATION_TYPE":"U","NORAD_CAT_ID":"51743","PERIOD":"95.438","MEAN_ELEMENT_THEORY":"SGP4","RCS_SIZE":"LARGE"},{"ARG_OF_PERICENTER":"88.1536","TLE_LINE2":"2 51744  53.2166 342.0473 0001344  88.1536 271.9610 15.08836802 53300","FILE":"3774172","CENTER_NAME":"EARTH","REV_AT_EPOCH":"5330","DECAY_DATE":null,"OBJECT_ID":"2022-016AG","EPHEMERIS_TYPE":"0","TIME_SYSTEM":"UTC","ELEMENT_SET_NO":"999","ECCENTRICITY":"0.00013440","RA_OF_ASC_NODE":"342.0473","REF_FRAME":"TEME","OBJECT_TYPE":"PAYLOAD","SEMIMAJOR_AXIS":"6917.890","MEAN_MOTION_DDOT":"0.0000000000000","BSTAR":"0.00006551400000","MEAN_ANOMALY":"271.9610","INCLINATION":"53.2166","PERIAPSIS":"538.825","MEAN_MOTION":"15.08836802","GP_ID":"224559462","OBJECT_NAME":"STARLINK-3452","COUNTRY_CODE":"US","LAUNCH_DATE":"2022-02-21","SITE":"AFETR","MEAN_MOTION_DOT":"0.00000755","TLE_LINE1":"1 51744U 22016AG  23036.88274561  .00000755  00000-0  65514-4 0  9999","APOAPSIS":"540.685","EPOCH":"2023-02-05T21:11:09.220704","CLASSIFICATION_TYPE":"U","RCS_SIZE":"LARGE","MEAN_ELEMENT_THEORY":"SGP4","PERIOD":"95.438","NORAD_CAT_ID":"51744"},{"OBJECT_TYPE":"PAYLOAD","SEMIMAJOR_AXIS":"6917.888","REF_FRAME":"TEME","RA_OF_ASC_NODE":"344.9592","MEAN_ANOMALY":"268.2398","BSTAR":"0.00012479000000","MEAN_MOTION_DDOT":"0.0000000000000","EPHEMERIS_TYPE":"0","DECAY_DATE":null,"OBJECT_ID":"2022-016AH","REV_AT_EPOCH":"5320","ECCENTRICITY":"0.00011810","ELEMENT_SET_NO":"999","TIME_SYSTEM":"UTC","TLE_LINE2":"2 51745  53.2162 344.9592 0001181  91.8730 268.2398 15.08837395 53205","FILE":"3773728","CENTER_NAME":"EARTH","ARG_OF_PERICENTER":"91.8730","MEAN_ELEMENT_THEORY":"SGP4","RCS_SIZE":"LARGE","NORAD_CAT_ID":"51745","PERIOD":"95.438","CLASSIFICATION_TYPE":"U","SITE":"AFETR","LAUNCH_DATE":"2022-02-21","EPOCH":"2023-02-05T05:37:06.834432","APOAPSIS":"540.570","TLE_LINE1":"1 51745U 22016AH  23036.23410688  .00001699  00000-0  12479-3 0  9990","MEAN_MOTION_DOT":"0.00001699","PERIAPSIS":"538.936","MEAN_MOTION":"15.08837395","INCLINATION":"53.2162","COUNTRY_CODE":"US","OBJECT_NAME":"STARLINK-3449","GP_ID":"224496061"},{"MEAN_MOTION_DOT":"0.00001449","TLE_LINE1":"1 51746U 22016AJ  23036.84590682  .00001449  00000-0  10911-3 0  9993","APOAPSIS":"540.523","EPOCH":"2023-02-05T20:18:06.349248","LAUNCH_DATE":"2022-02-21","SITE":"AFETR","GP_ID":"224557962","OBJECT_NAME":"STARLINK-3502","COUNTRY_CODE":"US","INCLINATION":"53.2158","PERIAPSIS":"538.986","MEAN_MOTION":"15.08836949","PERIOD":"95.438","NORAD_CAT_ID":"51746","RCS_SIZE":"LARGE","MEAN_ELEMENT_THEORY":"SGP4","CLASSIFICATION_TYPE":"U","FILE":"3774172","CENTER_NAME":"EARTH","TLE_LINE2":"2 51746  53.2158 332.2112 0001111  98.3636 261.7482 15.08836949 53430","ARG_OF_PERICENTER":"98.3636","MEAN_MOTION_DDOT":"0.0000000000000","BSTAR":"0.00010911000000","MEAN_ANOMALY":"261.7482","RA_OF_ASC_NODE":"332.2112","REF_FRAME":"TEME","OBJECT_TYPE":"PAYLOAD","SEMIMAJOR_AXIS":"6917.890","TIME_SYSTEM":"UTC","ELEMENT_SET_NO":"999","ECCENTRICITY":"0.00011110","REV_AT_EPOCH":"5343","DECAY_DATE":null,"OBJECT_ID":"2022-016AJ","EPHEMERIS_TYPE":"0"},{"CENTER_NAME":"EARTH","FILE":"3774172","TLE_LINE2":"2 51747  53.2153 342.0343 0001097  87.2908 272.8209 15.08836346 53300","ARG_OF_PERICENTER":"87.2908","MEAN_MOTION_DDOT":"0.0000000000000","BSTAR":"0.00015576000000","MEAN_ANOMALY":"272.8209","RA_OF_ASC_NODE":"342.0343","REF_FRAME":"TEME","OBJECT_TYPE":"PAYLOAD","SEMIMAJOR_AXIS":"6917.892","TIME_SYSTEM":"UTC","ELEMENT_SET_NO":"999","ECCENTRICITY":"0.00010970","REV_AT_EPOCH":"5330","DECAY_DATE":null,"OBJECT_ID":"2022-016AK","EPHEMERIS_TYPE":"0","MEAN_MOTION_DOT":"0.00002192","TLE_LINE1":"1 51747U 22016AK  23036.88547109  .00002192  00000-0  15576-3 0  9992","APOAPSIS":"540.515","EPOCH":"2023-02-05T21:15:04.702176","LAUNCH_DATE":"2022-02-21","SITE":"AFETR","GP_ID":"224558712","OBJECT_NAME":"STARLINK-3446","COUNTRY_CODE":"US","INCLINATION":"53.2153","MEAN_MOTION":"15.08836346","PERIAPSIS":"538.998","PERIOD":"95.438","NORAD_CAT_ID":"51747","RCS_SIZE":"LARGE","MEAN_ELEMENT_THEORY":"SGP4","CLASSIFICATION_TYPE":"U"},{"TLE_LINE2":"2 51748  53.2165 334.9239 0001321  84.9828 275.1315 15.08841875 53344","FILE":"3773728","CENTER_NAME":"EARTH","ARG_OF_PERICENTER":"84.9828","RA_OF_ASC_NODE":"334.9239","REF_FRAME":"TEME","OBJECT_TYPE":"PAYLOAD","SEMIMAJOR_AXIS":"6917.875","MEAN_MOTION_DDOT":"0.0000000000000","BSTAR":"0.00067183000000","MEAN_ANOMALY":"275.1315","REV_AT_EPOCH":"5334","DECAY_DATE":null,"OBJECT_ID":"2022-016AL","EPHEMERIS_TYPE":"0","TIME_SYSTEM":"UTC","ELEMENT_SET_NO":"999","ECCENTRICITY":"0.00013210","LAUNCH_DATE":"2022-02-21","SITE":"AFETR","MEAN_MOTION_DOT":"0.00010421","TLE_LINE1":"1 51748U 22016AL  23036.24238809  .00010421  00000-0  67183-3 0  9992","APOAPSIS":"540.654","EPOCH":"2023-02-05T05:49:02.330976","INCLINATION":"53.2165","PERIAPSIS":"538.826","MEAN_MOTION":"15.08841875","GP_ID":"224495820","OBJECT_NAME":"STARLINK-3501","COUNTRY_CODE":"US","RCS_SIZE":"LARGE","MEAN_ELEMENT_THEORY":"SGP4","PERIOD":"95.437","NORAD_CAT_ID":"51748","CLASSIFICATION_TYPE":"U"},{"PERIOD":"95.437","NORAD_CAT_ID":"51749","RCS_SIZE":"LARGE","MEAN_ELEMENT_THEORY":"SGP4","CLASSIFICATION_TYPE":"U","TLE_LINE1":"1 51749U 22016AM  23036.25346714  .00007171  00000-0  46809-3 0  9999","MEAN_MOTION_DOT":"0.00007171","EPOCH":"2023-02-05T06:04:59.560896","APOAPSIS":"540.675","LAUNCH_DATE":"2022-02-21","SITE":"AFETR","OBJECT_NAME":"STARLINK-3451","GP_ID":"224496561","COUNTRY_CODE":"US","PERIAPSIS":"538.784","MEAN_MOTION":"15.08845266","INCLINATION":"53.2166","BSTAR":"0.00046809000000","MEAN_MOTION_DDOT":"0.0000000000000","MEAN_ANOMALY":"266.3651","RA_OF_ASC_NODE":"344.8654","REF_FRAME":"TEME","SEMIMAJOR_AXIS":"6917.864","OBJECT_TYPE":"PAYLOAD","TIME_SYSTEM":"UTC","ECCENTRICITY":"0.00013670","ELEMENT_SET_NO":"999","REV_AT_EPOCH":"5320","EPHEMERIS_TYPE":"0","OBJECT_ID":"2022-016AM","DECAY_DATE":null,"FILE":"3773728","CENTER_NAME":"EARTH","TLE_LINE2":"2 51749  53.2166 344.8654 0001367  93.7498 266.3651 15.08845266 53206","ARG_OF_PERICENTER":"93.7498"},{"REV_AT_EPOCH":"5343","DECAY_DATE":null,"OBJECT_ID":"2022-016AN","EPHEMERIS_TYPE":"0","TIME_SYSTEM":"UTC","ELEMENT_SET_NO":"999","ECCENTRICITY":"0.00014500","REF_FRAME":"TEME","RA_OF_ASC_NODE":"332.2809","OBJECT_TYPE":"PAYLOAD","SEMIMAJOR_AXIS":"6917.831","MEAN_MOTION_DDOT":"0.0000000000000","BSTAR":"0.00042746000000","MEAN_ANOMALY":"273.7761","ARG_OF_PERICENTER":"86.3397","TLE_LINE2":"2 51750  53.2171 332.2809 0001450  86.3397 273.7761 15.08856298 53432","FILE":"3774172","CENTER_NAME":"EARTH","CLASSIFICATION_TYPE":"U","RCS_SIZE":"LARGE","MEAN_ELEMENT_THEORY":"SGP4","PERIOD":"95.437","NORAD_CAT_ID":"51750","INCLINATION":"53.2171","MEAN_MOTION":"15.08856298","PERIAPSIS":"538.692","GP_ID":"224558462","OBJECT_NAME":"STARLINK-3505","COUNTRY_CODE":"US","LAUNCH_DATE":"2022-02-21","SITE":"AFETR","MEAN_MOTION_DOT":"0.00006525","TLE_LINE1":"1 51750U 22016AN  23036.83117970  .00006525  00000-0  42746-3 0  9993","APOAPSIS":"540.699","EPOCH":"2023-02-05T19:56:53.926080"},{"SEMIMAJOR_AXIS":"6917.898","OBJECT_TYPE":"PAYLOAD","RA_OF_ASC_NODE":"332.2294","REF_FRAME":"TEME","MEAN_ANOMALY":"267.0887","MEAN_MOTION_DDOT":"0.0000000000000","BSTAR":"0.00006673200000","OBJECT_ID":"2022-016AP","DECAY_DATE":null,"EPHEMERIS_TYPE":"0","REV_AT_EPOCH":"5343","ELEMENT_SET_NO":"999","ECCENTRICITY":"0.00014640","TIME_SYSTEM":"UTC","TLE_LINE2":"2 51751  53.2172 332.2294 0001464  93.0272 267.0887 15.08834314 53434","FILE":"3774172","CENTER_NAME":"EARTH","ARG_OF_PERICENTER":"93.0272","MEAN_ELEMENT_THEORY":"SGP4","RCS_SIZE":"LARGE","NORAD_CAT_ID":"51751","PERIOD":"95.438","CLASSIFICATION_TYPE":"U","SITE":"AFETR","LAUNCH_DATE":"2022-02-21","APOAPSIS":"540.776","EPOCH":"2023-02-05T20:12:48.627936","MEAN_MOTION_DOT":"0.00000774","TLE_LINE1":"1 51751U 22016AP  23036.84222949  .00000774  00000-0  66732-4 0  9990","INCLINATION":"53.2172","PERIAPSIS":"538.750","MEAN_MOTION":"15.08834314","COUNTRY_CODE":"US","GP_ID":"224558213","OBJECT_NAME":"STARLINK-3506"},{"ELEMENT_SET_NO":"999","ECCENTRICITY":"0.00015700","TIME_SYSTEM":"UTC","DECAY_DATE":null,"OBJECT_ID":"2022-016AQ","EPHEMERIS_TYPE":"0","REV_AT_EPOCH":"5334","MEAN_ANOMALY":"264.3466","MEAN_MOTION_DDOT":"0.0000000000000","BSTAR":"0.00031646000000","SEMIMAJOR_AXIS":"6917.873","OBJECT_TYPE":"PAYLOAD","RA_OF_ASC_NODE":"334.9694","REF_FRAME":"TEME","ARG_OF_PERICENTER":"95.7705","FILE":"3773728","CENTER_NAME":"EARTH","TLE_LINE2":"2 51752  53.2167 334.9694 0001570  95.7705 264.3466 15.08842336 53346","CLASSIFICATION_TYPE":"U","NORAD_CAT_ID":"51752","PERIOD":"95.437","MEAN_ELEMENT_THEORY":"SGP4","RCS_SIZE":"LARGE","COUNTRY_CODE":"US","GP_ID":"224496319","OBJECT_NAME":"STARLINK-3511","INCLINATION":"53.2167","PERIAPSIS":"538.652","MEAN_MOTION":"15.08842336","APOAPSIS":"540.824","EPOCH":"2023-02-05T05:33:08.118144","MEAN_MOTION_DOT":"0.00004752","TLE_LINE1":"1 51752U 22016AQ  23036.23134396  .00004752  00000-0  31646-3 0  9997","SITE":"AFETR","LAUNCH_DATE":"2022-02-21"}];
